STARLINK-35832          
1 66495U 25263L   25336.83336806 -.02003573  00000+0 -15303-1 0  9998
2 66495  42.9984 183.6312 0001246 276.3526 227.5965 15.74224569  4045
STARLINK-35909          
1 66496U 25263M   25336.83336806 -.02007061  00000+0 -15332-1 0  9997
2 66496  42.9984 183.6263 0001298 284.8574 221.0055 15.74226748  4045
STARLINK-35899          
1 66497U 25263N   25336.83336806 -.01997702  00000+0 -15254-1 0  9990
2 66497  42.9984 183.6211 0001264 285.8220 221.9570 15.74222594  4047
STARLINK-35907          
1 66498U 25263P   25336.83336806 -.01988210  00000+0 -15178-1 0  9990
2 66498  42.9984 183.6163 0001233 261.3399 248.3623 15.74213505  4040
STARLINK-35816          
1 66499U 25263Q   25336.83336806 -.01985910  00000+0 -15157-1 0  9992
2 66499  42.9983 183.6069 0001291 282.3143 231.2180 15.74214383  4043
STARLINK-35894          
1 66500U 25263R   25336.83336806 -.02514017  00000+0 -19356-1 0  9997
2 66500  42.9985 183.6119 0001320 281.1752 230.4313 15.74246942  4045
STARLINK-35897          
1 66501U 25263S   25336.83336806 -.01980776  00000+0 -15115-1 0  9995
2 66501  42.9983 183.6018 0001154 268.3944 247.0560 15.74212426  4045
STARLINK-35922          
1 66502U 25263T   25336.83336806 -.02009391  00000+0 -15349-1 0  9991
2 66502  42.9984 183.5870 0001328 279.4936 241.7023 15.74230158  4046
STARLINK-35917          
1 66503U 25263U   25336.66670139 -.01934021  00000+0 -14593-1 0  9999
2 66503  42.9982 184.5859 0001235 259.7629  39.3845 15.74924478  4015
STARLINK-35916          
1 66504U 25263V   25336.83336806 -.02560529  00000+0 -40263-1 0  9991
2 66504  42.9989 183.9884 0001591 267.7783  91.6122 15.56132202  4047
STARLINK-34766          
1 66505U 25263W   25336.83336806 -.01986796  00000+0 -15166-1 0  9993
2 66505  42.9984 183.5964 0001231 262.6555 254.7148 15.74213562  4049
STARLINK-34765          
1 66506U 25263X   25336.83336806 -.01980959  00000+0 -15116-1 0  9994
2 66506  42.9984 183.5924 0001265 267.9092 251.3752 15.74212259  4043
STARLINK-34767          
1 66507U 25263Y   25336.83336806 -.02020654  00000+0 -15444-1 0  9997
2 66507  42.9983 183.5818 0001252 280.8739 242.2413 15.74235495  4043
STARLINK-35608          
1 66508U 25263Z   25336.83336806 -.02001813  00000+0 -15289-1 0  9991
2 66508  42.9983 183.5679 0001340 278.7473 250.1233 15.74222606  4046
STARLINK-35598          
1 66509U 25263AA  25336.83336806 -.01996069  00000+0 -15241-1 0  9995
2 66509  42.9981 183.5470 0001164 279.9010 256.6336 15.74221311  4045
STARLINK-35600          
1 66510U 25263AB  25336.83336806 -.02000897  00000+0 -15283-1 0  9999
2 66510  42.9982 183.5617 0001329 263.1197 267.6715 15.74219570  4042
STARLINK-35444          
1 66511U 25263AC  25336.83336806 -.02011907  00000+0 -15372-1 0  9993
2 66511  42.9983 183.5524 0001190 274.0615 260.5592 15.74230095  4043
STARLINK-35366          
1 66512U 25263AD  25336.83336806 -.01988133  00000+0 -15174-1 0  9997
2 66512  42.9984 183.5424 0001321 272.1133 266.3395 15.74217272  4041
STARLINK-35692          
1 66513U 25263AE  25336.83336806 -.02016935  00000+0 -15414-1 0  9998
2 66513  42.9982 183.5571 0001369 284.8022 247.9007 15.74230724  4044
SENTINEL-6B             
1 66514U 25264A   25336.82463595  .00000022  00000+0  33946-3 0  9993
2 66514  66.0389 183.1329 0011530 268.7343  91.2354 12.85877469  2010
STARLINK-35924          
1 66516U 25265A   25336.83336806 -.00008731  00000+0 -53820-4 0  9992
2 66516  42.9994 112.8813 0001531 273.6690 282.1143 15.75025310  3384
STARLINK-35937          
1 66517U 25265B   25336.83336806  .00131058  00000+0  84311-3 0  9998
2 66517  42.9995 112.8778 0001582 271.7602 285.8639 15.75038397  3406
STARLINK-35962          
1 66518U 25265C   25336.83336806  .00113127  00000+0  73142-3 0  9996
2 66518  42.9993 112.8721 0001874 270.5625 289.0628 15.74984986  3406
STARLINK-35931          
1 66519U 25265D   25336.83336806  .00092905  00000+0  60276-3 0  9991
2 66519  42.9994 112.8669 0001535 271.5317 290.0160 15.74982226  3400
STARLINK-35952          
1 66520U 25265E   25336.83336806  .00048772  00000+0  31913-3 0  9992
2 66520  42.9993 112.8620 0001526 271.4232 292.0353 15.75013650  3406
STARLINK-35915          
1 66521U 25265F   25336.83336806  .00206305  00000+0  13194-2 0  9991
2 66521  42.9995 112.8572 0001623 272.7185 292.6681 15.74937258  3402
STARLINK-35946          
1 66522U 25265G   25336.83336806  .00198770  00000+0  12718-2 0  9999
2 66522  42.9993 112.8533 0001575 275.0931 292.2059 15.74948860  3405
STARLINK-35969          
1 66523U 25265H   25336.83336806  .00099404  00000+0  64423-3 0  9995
2 66523  42.9997 112.8474 0001565 284.9104 284.3102 15.74981359  3405
STARLINK-35687          
1 66524U 25265J   25336.83336806  .00087675  00000+0  56919-3 0  9994
2 66524  42.9994 112.8422 0001480 278.7505 292.3822 15.74988893  3406
STARLINK-35975          
1 66525U 25265K   25336.83336806  .00171552  00000+0  11010-2 0  9995
2 66525  42.9994 112.8386 0001502 272.5856 300.4629 15.74963305  3409
STARLINK-35932          
1 66526U 25265L   25336.83336806  .00144893  00000+0  93271-3 0  9994
2 66526  42.9995 112.8337 0001709 277.7826 297.1844 15.74977919  3294
STARLINK-35935          
1 66527U 25265M   25336.83336806  .00179774  00000+0  11527-2 0  9994
2 66527  42.9993 112.8292 0001388 273.5511 303.3300 15.74958650  3402
STARLINK-35928          
1 66528U 25265N   25336.83336806  .00045111  00000+0  29626-3 0  9992
2 66528  42.9996 112.8240 0001698 278.0820 300.7006 15.74956985  3409
STARLINK-35933          
1 66529U 25265P   25336.83336806 -.00054024  00000+0 -34966-3 0  9991
2 66529  42.9997 112.8192 0001694 271.3139 309.4151 15.75114526  3407
STARLINK-35961          
1 66530U 25265Q   25336.83336806  .00143897  00000+0  92685-3 0  9990
2 66530  42.9995 112.8141 0001534 273.0758 309.5574 15.74967547  3408
STARLINK-35960          
1 66531U 25265R   25336.83336806  .00112400  00000+0  72720-3 0  9995
2 66531  42.9997 112.8089 0001383 278.3879 306.1711 15.74973205  3400
STARLINK-35914          
1 66532U 25265S   25336.83336806  .00177312  00000+0  11375-2 0  9997
2 66532  42.9994 112.8047 0001519 277.8555 308.6142 15.74953681  3409
STARLINK-35707          
1 66533U 25265T   25336.83336806  .00107234  00000+0  69429-3 0  9998
2 66533  42.9995 112.7994 0001328 283.0561 305.3302 15.74975198  3404
STARLINK-35976          
1 66534U 25265U   25336.83336806  .00153648  00000+0  98814-3 0  9999
2 66534  42.9998 112.7957 0001484 265.9362 324.3745 15.74971361  3408
STARLINK-35514          
1 66535U 25265V   25336.83336806  .00134950  00000+0  87010-3 0  9991
2 66535  42.9998 112.7904 0001644 278.4561 313.7557 15.74973926  3401
STARLINK-35640          
1 66536U 25265W   25336.83336806  .00129669  00000+0  83715-3 0  9991
2 66536  42.9997 112.7858 0001566 275.3897 318.7526 15.74961449  3385
STARLINK-35582          
1 66537U 25265X   25336.83336806  .00052645  00000+0  34443-3 0  9995
2 66537  43.0000 112.7803 0001729 273.3449 322.7083 15.74988729  3401
STARLINK-35577          
1 66538U 25265Y   25336.83336806  .00094736  00000+0  61433-3 0  9992
2 66538  42.9998 112.7752 0001561 277.1043 320.8648 15.74986306  3400
STARLINK-35697          
1 66539U 25265Z   25336.83336806  .00171575  00000+0  11014-2 0  9999
2 66539  43.0001 112.7706 0001358 276.7265 323.1632 15.74957479  3400
STARLINK-35818          
1 66540U 25265AA  25336.83336806  .00171112  00000+0  10984-2 0  9993
2 66540  42.9996 112.7664 0001472 265.3919 336.4174 15.74959661  3406
STARLINK-35796          
1 66541U 25265AB  25336.83336806  .00174379  00000+0  11193-2 0  9995
2 66541  42.9998 112.7613 0001424 259.7697 343.9607 15.74950765  3400
STARLINK-35833          
1 66542U 25265AC  25336.83336806  .00146570  00000+0  94302-3 0  9992
2 66542  43.0000 112.7570 0001645 266.0354 339.5967 15.74984326  3405
STARLINK-35315          
1 66543U 25265AD  25336.83336806  .00139094  00000+0  89621-3 0  9994
2 66543  43.0000 112.7511 0001362 270.9482 336.6114 15.74975930  3293
STARLINK-35728          
1 66544U 25265AE  25336.83336806  .00162843  00000+0  10462-2 0  9999
2 66544  43.0000 112.7470 0001428 271.6858 337.7866 15.74965663  3407
SHIJIAN-30A             
1 66545U 25266A   25336.66750299  .00014991  00000+0  79898-3 0  9997
2 66545  51.7995  20.0423 0012752 320.4736  39.5309 15.15312731  2052
SHIJIAN-30B             
1 66546U 25266B   25336.66852294  .00017360  00000+0  92142-3 0  9996
2 66546  51.7978  20.0472 0010433 323.4151  36.6112 15.15371330  2056
SHIJIAN-30C             
1 66547U 25266C   25336.60334828  .00015109  00000+0  80329-3 0  9992
2 66547  51.7989  20.3617 0011327 315.3945  44.6119 15.15409301  2042
CZ-2C R/B               
1 66548U 25266D   25336.67343081  .00015330  00000+0  48009-3 0  9996
2 66548  52.0550  19.2264 0084826 138.8179 221.9248 15.29827704  2079
SHIJIAN-28              
1 66549U 25277A   25334.75466579  .00006315  00000+0  62085-3 0  9997
2 66549  14.4344 275.4056 7300519 179.5026 182.3580  2.28019775    48
CZ-7A R/B               
1 66550U 25277B   25335.16492545  .00016399 -71945-7  44604-4 0  9993
2 66550  14.4278 275.3780 7236287 178.5774 186.2906  2.40161271    57
GLOBAL-33               
1 66554U 25267A   25336.55506256  .00015941  00000+0  52376-3 0  9996
2 66554  42.0185 115.7754 0005626 340.2863  19.7756 15.31252649  1849
ELECTRON KICK STAGE R/B 
1 66555U 25267B   25336.54979043  .00029810  00000+0  94567-3 0  9992
2 66555  42.0171 115.7383 0007431 340.0651  19.9895 15.32072422  1848
STARLINK-35699          
1 66557U 25268A   25336.83336806 -.01470357  00000+0 -10215-1 0  9996
2 66557  42.9977 179.9093 0001429 274.9879 303.8511 15.76409760  3075
STARLINK-35695          
1 66558U 25268B   25336.83336806 -.01461070  00000+0 -10153-1 0  9990
2 66558  42.9976 179.9047 0001479 274.9427 305.8448 15.76385835  3075
